ONEWEB-0668             
1 56711U 23068B   25358.25591661 -.00000232  00000+0 -63978-3 0  9991
2 56711  87.9057 263.5889 0001137  88.1302 271.9959 13.16594520128765
ONEWEB-0676             
1 56712U 23068C   25358.18785567  .00000196  00000+0  48023-3 0  9995
2 56712  87.9046 263.6232 0001889  80.4792 279.6553 13.16596285128674
ONEWEB-0677             
1 56713U 23068D   25358.11278800  .00000043  00000+0  73446-4 0  9995
2 56713  87.9219 309.3512 0001891  85.2036 274.9314 13.20772233126690
ONEWEB-0678             
1 56714U 23068E   25358.22813197 -.00000144  00000+0 -41557-3 0  9993
2 56714  87.9012 294.0975 0001975  68.9341 291.2001 13.15548387126280
ONEWEB-0679             
1 56715U 23068F   25357.31070147 -.00000157  00000+0 -44362-3 0  9994
2 56715  87.9042 263.7811 0001617  95.0272 265.1044 13.16593041128583
ONEWEB-0680             
1 56716U 23068G   25358.23797801  .00000050  00000+0  88968-4 0  9991
2 56716  87.9232 278.8561 0001366  94.1562 265.9728 13.21826365127981
ONEWEB-0681             
1 56717U 23068H   25358.21741663  .00000075  00000+0  14927-3 0  9995
2 56717  87.9224 278.8746 0002691  87.3327 272.8115 13.21826295127971
ONEWEB-0682             
1 56718U 23068J   25358.25428289 -.00000006  00000+0 -51301-4 0  9990
2 56718  87.9001 294.1055 0001500  91.6312 268.4990 13.15548334126451
